{"fetched_at":"2026-03-29T16:36:15Z","count":15609,"tles":[{"name":"STARLINK-35567","line1":"1 66472U 25262S   26087.74366408  .00031510  00000+0  11482-2 0  9990","line2":"2 66472  43.0005 188.2873 0001356 255.5336 104.5365 15.27623683 21820","category":"Starlink"}]}